IRIDIUM 136             
1 42962U 17061H   24037.96118541  .00000267  00000+0  88129-4 0  9995
2 42962  86.3970  25.1435 0002184  80.9613 279.1830 14.34217211331395
